OBJECT_NAME,OBJECT_ID,EPOCH,MEAN_MOTION,ECCENTRICITY,INCLINATION,RA_OF_ASC_NODE,ARG_OF_PERICENTER,MEAN_ANOMALY,EPHEMERIS_TYPE,CLASSIFICATION_TYPE,NORAD_CAT_ID,ELEMENT_SET_NO,REV_AT_EPOCH,BSTAR,MEAN_MOTION_DOT,MEAN_MOTION_DDOT
APRIZESAT 2,2004-025A,2026-07-23T06:11:03.957216,14.38050572,.01064199,98.1051,8.2022,140.6876,220.2100,0,U,28366,999,15682,.76634043E-4,.206E-5,0
SAUDICOMSAT 1,2004-025D,2026-07-22T23:17:01.976064,14.55497464,.00308433,98.5780,215.0689,274.1344,85.6327,0,U,28369,999,16933,.71588545E-4,.263E-5,0
SAUDICOMSAT 2,2004-025E,2026-07-23T00:12:08.292384,14.49997461,.00561193,98.6645,217.2677,150.1520,210.2893,0,U,28370,999,16529,.67207565E-4,.216E-5,0
APRIZESAT 1,2004-025G,2026-07-23T06:30:44.669376,14.51795453,.0045475,98.6312,215.9800,46.7212,313.7762,0,U,28372,999,16714,.67490012E-4,.226E-5,0
NANOSAT-1,2004-049B,2026-07-22T07:42:05.148288,14.80220471,.0004302,98.2319,340.8507,162.5350,197.6010,0,U,28493,999,16064,.11092855E-3,.788E-5,0
SAUDICOMSAT 7,2007-012C,2026-07-23T05:10:46.199136,14.66143451,.00570258,98.3806,179.0902,83.7265,277.0429,0,U,31119,999,2771,.10663229E-3,.547E-5,0
SAUDICOMSAT 6,2007-012E,2026-07-22T22:31:41.056896,14.62589064,.00708943,98.4124,172.1266,214.6756,144.9813,0,U,31121,999,2541,.7082302E-4,.319E-5,0
SAUDICOMSAT 5,2007-012H,2026-07-23T04:57:55.274400,14.68200251,.00477091,98.3517,179.8213,13.9607,346.2903,0,U,31124,999,2888,.11496026E-3,.619E-5,0
SAUDICOMSAT 3,2007-012J,2026-07-23T04:08:59.614944,14.70758420,.00378413,98.3172,180.3325,299.3530,60.3898,0,U,31125,999,3011,.11369514E-3,.646E-5,0
SAUDICOMSAT 4,2007-012L,2026-07-23T03:51:06.848352,14.64540810,.00640795,98.4011,177.4700,145.0291,215.5145,0,U,31127,999,2655,.83883881E-4,.405E-5,0
APRIZESAT 4,2009-041D,2026-07-23T04:44:41.916768,14.83922373,.00427543,98.1397,280.2340,203.1140,156.8151,0,U,35684,999,91670,.85909135E-4,.666E-5,0
APRIZESAT 3,2009-041F,2026-07-23T00:13:49.049472,14.96320600,.00606569,98.2106,358.9609,309.6515,49.9362,0,U,35686,999,92173,.43697982E-4,.442E-5,0
S-NET D,2018-014G,2026-07-23T03:37:20.836704,15.16969037,.00062946,97.5321,108.7180,249.6107,110.4450,0,U,43186,999,46421,.25534545E-3,.4975E-4,0
S-NET B,2018-014H,2026-07-23T05:29:51.089856,15.16938772,.00069431,97.5326,108.7833,243.8856,116.1664,0,U,43187,999,46422,.2427191E-3,.4722E-4,0
S-NET A,2018-014J,2026-07-23T03:35:26.811168,15.16977499,.00068493,97.5337,108.9200,245.0796,114.9726,0,U,43188,999,46421,.25916921E-3,.5052E-4,0
S-NET C,2018-014K,2026-07-23T04:00:43.726464,15.16929043,.00083203,97.5354,109.0177,236.9120,123.1315,0,U,43189,999,46276,.23504607E-3,.457E-4,0
SALSAT,2020-068K,2026-07-23T05:54:11.724192,15.30255611,.00100696,97.8868,209.5206,165.1541,194.9995,0,U,46495,999,32087,.25761612E-3,.7467E-4,0
OOV-CUBE (TUBSAT-30),2024-128F,2026-07-23T04:25:49.884960,15.02898344,.00400777,61.9942,100.0399,141.8645,218.5295,0,U,60240,999,11152,.14199344E-3,.1732E-4,0
LPNTSAT-001 (IOD-1),2026-065A,2026-07-23T02:51:39.588480,15.18696469,.00148499,97.3971,83.8632,235.8618,124.1208,0,U,68408,999,1771,.10506308E-3,.2117E-4,0
CHUANG XIN 26 (CX-26),2026-158A,2026-07-23T02:54:21.754368,14.25116153,.00049317,49.9823,246.9687,326.4580,33.6021,0,U,69972,999,183,-.10163532E-4,-.184E-5,0
