APRIZESAT 2             
1 28366U 04025A   26204.25768469  .00000206  00000+0  76634-4 0  9994
2 28366  98.1051   8.2022 0106419 140.6876 220.2100 14.38050572156822
SAUDICOMSAT 1           
1 28369U 04025D   26203.97016176  .00000263  00000+0  71589-4 0  9993
2 28369  98.5780 215.0689 0030843 274.1344  85.6327 14.55497464169333
SAUDICOMSAT 2           
1 28370U 04025E   26204.00842931  .00000216  00000+0  67208-4 0  9997
2 28370  98.6645 217.2677 0056119 150.1520 210.2893 14.49997461165290
APRIZESAT 1             
1 28372U 04025G   26204.27135034  .00000226  00000+0  67490-4 0  9991
2 28372  98.6312 215.9800 0045475  46.7212 313.7762 14.51795453167147
NANOSAT-1               
1 28493U 04049B   26203.32089292  .00000788  00000+0  11093-3 0  9990
2 28493  98.2319 340.8507 0004302 162.5350 197.6010 14.80220471160648
SAUDICOMSAT 7           
1 31119U 07012C   26204.21581249  .00000547  00000+0  10663-3 0  9995
2 31119  98.3806 179.0902 0057025  83.7265 277.0429 14.66143451 27712
SAUDICOMSAT 6           
1 31121U 07012E   26203.93866964  .00000319  00000+0  70823-4 0  9998
2 31121  98.4124 172.1266 0070894 214.6756 144.9813 14.62589064 25419
SAUDICOMSAT 5           
1 31124U 07012H   26204.20688975  .00000619  00000+0  11496-3 0  9999
2 31124  98.3517 179.8213 0047709  13.9607 346.2903 14.68200251 28882
SAUDICOMSAT 3           
1 31125U 07012J   26204.17291221  .00000646  00000+0  11370-3 0  9991
2 31125  98.3172 180.3325 0037841 299.3530  60.3898 14.70758420 30117
SAUDICOMSAT 4           
1 31127U 07012L   26204.16049593  .00000405  00000+0  83884-4 0  9998
2 31127  98.4011 177.4700 0064079 145.0291 215.5145 14.64540810 26557
APRIZESAT 4             
1 35684U 09041D   26204.19770737  .00000666  00000+0  85909-4 0  9997
2 35684  98.1397 280.2340 0042754 203.1140 156.8151 14.83922373916709
APRIZESAT 3             
1 35686U 09041F   26204.00959548  .00000442  00000+0  43698-4 0  9999
2 35686  98.2106 358.9609 0060656 309.6515  49.9362 14.96320600921734
S-NET D                 
1 43186U 18014G   26204.15093561  .00004975  00000+0  25535-3 0  9997
2 43186  97.5321 108.7180 0006294 249.6107 110.4450 15.16969037464215
S-NET B                 
1 43187U 18014H   26204.22906354  .00004722  00000+0  24272-3 0  9996
2 43187  97.5326 108.7833 0006943 243.8856 116.1664 15.16938772464227
S-NET A                 
1 43188U 18014J   26204.14961587  .00005052  00000+0  25917-3 0  9991
2 43188  97.5337 108.9200 0006849 245.0796 114.9726 15.16977499464215
S-NET C                 
1 43189U 18014K   26204.16717276  .00004570  00000+0  23505-3 0  9993
2 43189  97.5354 109.0177 0008320 236.9120 123.1315 15.16929043462762
SALSAT                  
1 46495U 20068K   26204.24596903  .00007467  00000+0  25762-3 0  9994
2 46495  97.8868 209.5206 0010069 165.1541 194.9995 15.30255611320874
OOV-CUBE (TUBSAT-30)    
1 60240U 24128F   26204.18460515  .00001732  00000+0  14199-3 0  9992
2 60240  61.9942 100.0399 0040077 141.8645 218.5295 15.02898344111520
LPNTSAT-001 (IOD-1)     
1 68408U 26065A   26204.11920820  .00002117  00000+0  10506-3 0  9997
2 68408  97.3971  83.8632 0014849 235.8618 124.1208 15.18696469 17712
CHUANG XIN 26 (CX-26)   
1 69972U 26158A   26204.12108512 -.00000184  00000+0 -10164-4 0  9999
2 69972  49.9823 246.9687 0004931 326.4580  33.6021 14.25116153  1833
